CCSDS_OMM_VERS = 2.0
CREATION_DATE  = 
ORIGINATOR     = 

OBJECT_NAME    = STARLINK-35843
OBJECT_ID      = 2026-018T
CENTER_NAME    = EARTH
REF_FRAME      = TEME
TIME_SYSTEM    = UTC
MEAN_ELEMENT_THEORY = SGP/SGP4

EPOCH          = 2026-02-19T13:24:23.184288
MEAN_MOTION    = 15.75205634
ECCENTRICITY   = .00010096
INCLINATION    = 97.2839
RA_OF_ASC_NODE = 115.4716
ARG_OF_PERICENTER = 86.7156
MEAN_ANOMALY   = 273.4225

EPHEMERIS_TYPE = 0
CLASSIFICATION_TYPE = U
NORAD_CAT_ID   = 67606
ELEMENT_SET_NO = 999
REV_AT_EPOCH   = 445
BSTAR          = .68192949E-3
MEAN_MOTION_DOT = .102886E-2
MEAN_MOTION_DDOT = 0

CCSDS_OMM_VERS = 2.0
CREATION_DATE  = 
ORIGINATOR     = 

OBJECT_NAME    = STARLINK-36351
OBJECT_ID      = 2026-018U
CENTER_NAME    = EARTH
REF_FRAME      = TEME
TIME_SYSTEM    = UTC
MEAN_ELEMENT_THEORY = SGP/SGP4

EPOCH          = 2026-02-19T14:00:03.000384
MEAN_MOTION    = 15.75188132
ECCENTRICITY   = .0000962
INCLINATION    = 97.2851
RA_OF_ASC_NODE = 115.5318
ARG_OF_PERICENTER = 80.6927
MEAN_ANOMALY   = 137.7778

EPHEMERIS_TYPE = 0
CLASSIFICATION_TYPE = U
NORAD_CAT_ID   = 67607
ELEMENT_SET_NO = 999
REV_AT_EPOCH   = 449
BSTAR          = .19064085E-3
MEAN_MOTION_DOT = .28397E-3
MEAN_MOTION_DDOT = 0

CCSDS_OMM_VERS = 2.0
CREATION_DATE  = 
ORIGINATOR     = 

OBJECT_NAME    = STARLINK-36411
OBJECT_ID      = 2026-018V
CENTER_NAME    = EARTH
REF_FRAME      = TEME
TIME_SYSTEM    = UTC
MEAN_ELEMENT_THEORY = SGP/SGP4

EPOCH          = 2026-02-19T14:22:52.901760
MEAN_MOTION    = 15.80899228
ECCENTRICITY   = .00009948
INCLINATION    = 97.2854
RA_OF_ASC_NODE = 115.5671
ARG_OF_PERICENTER = 79.9771
MEAN_ANOMALY   = 280.1609

EPHEMERIS_TYPE = 0
CLASSIFICATION_TYPE = U
NORAD_CAT_ID   = 67608
ELEMENT_SET_NO = 999
REV_AT_EPOCH   = 446
BSTAR          = .14372476E-2
MEAN_MOTION_DOT = .285445E-2
MEAN_MOTION_DDOT = 0

CCSDS_OMM_VERS = 2.0
CREATION_DATE  = 
ORIGINATOR     = 

OBJECT_NAME    = STARLINK-36312
OBJECT_ID      = 2026-018W
CENTER_NAME    = EARTH
REF_FRAME      = TEME
TIME_SYSTEM    = UTC
MEAN_ELEMENT_THEORY = SGP/SGP4

EPOCH          = 2026-02-19T14:00:03.000384
MEAN_MOTION    = 15.75083673
ECCENTRICITY   = .00012986
INCLINATION    = 97.2854
RA_OF_ASC_NODE = 115.5365
ARG_OF_PERICENTER = 107.5586
MEAN_ANOMALY   = 122.9365

EPHEMERIS_TYPE = 0
CLASSIFICATION_TYPE = U
NORAD_CAT_ID   = 67609
ELEMENT_SET_NO = 999
REV_AT_EPOCH   = 449
BSTAR          = .16183216E-2
MEAN_MOTION_DOT = .247236E-2
MEAN_MOTION_DDOT = 0

CCSDS_OMM_VERS = 2.0
CREATION_DATE  = 
ORIGINATOR     = 

OBJECT_NAME    = STARLINK-36387
OBJECT_ID      = 2026-018X
CENTER_NAME    = EARTH
REF_FRAME      = TEME
TIME_SYSTEM    = UTC
MEAN_ELEMENT_THEORY = SGP/SGP4

EPOCH          = 2026-02-19T14:19:05.781216
MEAN_MOTION    = 15.80915827
ECCENTRICITY   = .00012059
INCLINATION    = 97.2854
RA_OF_ASC_NODE = 115.5710
ARG_OF_PERICENTER = 89.6530
MEAN_ANOMALY   = 270.4877

EPHEMERIS_TYPE = 0
CLASSIFICATION_TYPE = U
NORAD_CAT_ID   = 67610
ELEMENT_SET_NO = 999
REV_AT_EPOCH   = 446
BSTAR          = .15232609E-2
MEAN_MOTION_DOT = .303394E-2
MEAN_MOTION_DDOT = 0

CCSDS_OMM_VERS = 2.0
CREATION_DATE  = 
ORIGINATOR     = 

OBJECT_NAME    = STARLINK-36636
OBJECT_ID      = 2026-018Y
CENTER_NAME    = EARTH
REF_FRAME      = TEME
TIME_SYSTEM    = UTC
MEAN_ELEMENT_THEORY = SGP/SGP4

EPOCH          = 2026-02-19T14:17:33.178560
MEAN_MOTION    = 15.80886461
ECCENTRICITY   = .00014052
INCLINATION    = 97.2869
RA_OF_ASC_NODE = 115.5655
ARG_OF_PERICENTER = 41.3343
MEAN_ANOMALY   = 318.8031

EPHEMERIS_TYPE = 0
CLASSIFICATION_TYPE = U
NORAD_CAT_ID   = 67611
ELEMENT_SET_NO = 999
REV_AT_EPOCH   = 446
BSTAR          = .11123748E-2
MEAN_MOTION_DOT = .219071E-2
MEAN_MOTION_DDOT = 0

CCSDS_OMM_VERS = 2.0
CREATION_DATE  = 
ORIGINATOR     = 

OBJECT_NAME    = STARLINK-36407
OBJECT_ID      = 2026-018Z
CENTER_NAME    = EARTH
REF_FRAME      = TEME
TIME_SYSTEM    = UTC
MEAN_ELEMENT_THEORY = SGP/SGP4

EPOCH          = 2026-02-19T14:00:03.000384
MEAN_MOTION    = 15.75208207
ECCENTRICITY   = .0001468
INCLINATION    = 97.2847
RA_OF_ASC_NODE = 115.5515
ARG_OF_PERICENTER = 89.6443
MEAN_ANOMALY   = 176.8191

EPHEMERIS_TYPE = 0
CLASSIFICATION_TYPE = U
NORAD_CAT_ID   = 67612
ELEMENT_SET_NO = 999
REV_AT_EPOCH   = 454
BSTAR          = -.3083306E-3
MEAN_MOTION_DOT = -.45909E-3
MEAN_MOTION_DDOT = 0

CCSDS_OMM_VERS = 2.0
CREATION_DATE  = 
ORIGINATOR     = 

OBJECT_NAME    = STARLINK-36597
OBJECT_ID      = 2026-018AA
CENTER_NAME    = EARTH
REF_FRAME      = TEME
TIME_SYSTEM    = UTC
MEAN_ELEMENT_THEORY = SGP/SGP4

EPOCH          = 2026-02-19T12:43:36.607584
MEAN_MOTION    = 15.80916271
ECCENTRICITY   = .00020706
INCLINATION    = 97.2850
RA_OF_ASC_NODE = 115.5069
ARG_OF_PERICENTER = 42.0121
MEAN_ANOMALY   = 318.1306

EPHEMERIS_TYPE = 0
CLASSIFICATION_TYPE = U
NORAD_CAT_ID   = 67613
ELEMENT_SET_NO = 999
REV_AT_EPOCH   = 445
BSTAR          = .17616313E-2
MEAN_MOTION_DOT = .352921E-2
MEAN_MOTION_DDOT = 0

CCSDS_OMM_VERS = 2.0
CREATION_DATE  = 
ORIGINATOR     = 

OBJECT_NAME    = NEONSAT-1A
OBJECT_ID      = 2026-019A
CENTER_NAME    = EARTH
REF_FRAME      = TEME
TIME_SYSTEM    = UTC
MEAN_ELEMENT_THEORY = SGP/SGP4

EPOCH          = 2026-02-19T09:29:38.337504
MEAN_MOTION    = 15.07633050
ECCENTRICITY   = .00121566
INCLINATION    = 97.4104
RA_OF_ASC_NODE = 174.6307
ARG_OF_PERICENTER = 232.5200
MEAN_ANOMALY   = 127.4924

EPHEMERIS_TYPE = 0
CLASSIFICATION_TYPE = U
NORAD_CAT_ID   = 67614
ELEMENT_SET_NO = 999
REV_AT_EPOCH   = 306
BSTAR          = .22960061E-3
MEAN_MOTION_DOT = .3442E-4
MEAN_MOTION_DDOT = 0

CCSDS_OMM_VERS = 2.0
CREATION_DATE  = 
ORIGINATOR     = 

OBJECT_NAME    = ELECTRON KICK STAGE R/B
OBJECT_ID      = 2026-019C
CENTER_NAME    = EARTH
REF_FRAME      = TEME
TIME_SYSTEM    = UTC
MEAN_ELEMENT_THEORY = SGP/SGP4

EPOCH          = 2026-02-19T07:04:29.773920
MEAN_MOTION    = 15.67780680
ECCENTRICITY   = .0163893
INCLINATION    = 97.4037
RA_OF_ASC_NODE = 176.1354
ARG_OF_PERICENTER = 189.1618
MEAN_ANOMALY   = 170.6646

EPHEMERIS_TYPE = 0
CLASSIFICATION_TYPE = U
NORAD_CAT_ID   = 67616
ELEMENT_SET_NO = 999
REV_AT_EPOCH   = 315
BSTAR          = .19335E-2
MEAN_MOTION_DOT = .456956E-2
MEAN_MOTION_DDOT = .63724E-4

CCSDS_OMM_VERS = 2.0
CREATION_DATE  = 
ORIGINATOR     = 

OBJECT_NAME    = STARLINK-36548
OBJECT_ID      = 2026-020A
CENTER_NAME    = EARTH
REF_FRAME      = TEME
TIME_SYSTEM    = UTC
MEAN_ELEMENT_THEORY = SGP/SGP4

EPOCH          = 2026-02-19T14:58:42.227904
MEAN_MOTION    = 15.76399021
ECCENTRICITY   = .000329
INCLINATION    = 42.9969
RA_OF_ASC_NODE = 252.0781
ARG_OF_PERICENTER = 291.3509
MEAN_ANOMALY   = 68.7009

EPHEMERIS_TYPE = 0
CLASSIFICATION_TYPE = U
NORAD_CAT_ID   = 67617
ELEMENT_SET_NO = 999
REV_AT_EPOCH   = 323
BSTAR          = .19950636E-2
MEAN_MOTION_DOT = .338206E-2
MEAN_MOTION_DDOT = 0

CCSDS_OMM_VERS = 2.0
CREATION_DATE  = 
ORIGINATOR     = 

OBJECT_NAME    = STARLINK-36601
OBJECT_ID      = 2026-020B
CENTER_NAME    = EARTH
REF_FRAME      = TEME
TIME_SYSTEM    = UTC
MEAN_ELEMENT_THEORY = SGP/SGP4

EPOCH          = 2026-02-19T00:29:58.836768
MEAN_MOTION    = 15.82095833
ECCENTRICITY   = .00020164
INCLINATION    = 42.9987
RA_OF_ASC_NODE = 255.2751
ARG_OF_PERICENTER = 260.1769
MEAN_ANOMALY   = 99.8875

EPHEMERIS_TYPE = 0
CLASSIFICATION_TYPE = U
NORAD_CAT_ID   = 67618
ELEMENT_SET_NO = 999
REV_AT_EPOCH   = 314
BSTAR          = .12393042E-2
MEAN_MOTION_DOT = .269721E-2
MEAN_MOTION_DDOT = 0

