STARLINK-35843          
1 67606U 26018T   26050.55860167  .00102886  00000+0  68193-3 0  9997
2 67606  97.2839 115.4716 0001009  86.7156 273.4225 15.75205634  4459
STARLINK-36351          
1 67607U 26018U   26050.58336806  .00028397  00000+0  19064-3 0  9996
2 67607  97.2851 115.5318 0000962  80.6927 137.7778 15.75188132  4491
STARLINK-36411          
1 67608U 26018V   26050.59922340  .00285445  00000+0  14372-2 0  9997
2 67608  97.2854 115.5671 0000994  79.9771 280.1609 15.80899228  4464
STARLINK-36312          
1 67609U 26018W   26050.58336806  .00247236  00000+0  16183-2 0  9991
2 67609  97.2854 115.5365 0001298 107.5586 122.9365 15.75083673  4493
STARLINK-36387          
1 67610U 26018X   26050.59659469  .00303394  00000+0  15233-2 0  9990
2 67610  97.2854 115.5710 0001205  89.6530 270.4877 15.80915827  4461
STARLINK-36636          
1 67611U 26018Y   26050.59552290  .00219071  00000+0  11124-2 0  9998
2 67611  97.2869 115.5655 0001405  41.3343 318.8031 15.80886461  4465
STARLINK-36407          
1 67612U 26018Z   26050.58336806 -.00045909  00000+0 -30833-3 0  9999
2 67612  97.2847 115.5515 0001468  89.6443 176.8191 15.75208207  4540
STARLINK-36597          
1 67613U 26018AA  26050.53028481  .00352921  00000+0  17616-2 0  9998
2 67613  97.2850 115.5069 0002070  42.0121 318.1306 15.80916271  4457
NEONSAT-1A              
1 67614U 26019A   26050.39558261  .00003442  00000+0  22960-3 0  9998
2 67614  97.4104 174.6307 0012156 232.5200 127.4924 15.07633050  3066
ELECTRON KICK STAGE R/B 
1 67616U 26019C   26050.29478905  .00456956  63724-4  19335-2 0  9995
2 67616  97.4037 176.1354 0163893 189.1618 170.6646 15.67780680  3156
STARLINK-36548          
1 67617U 26020A   26050.62409986  .00338206  00000+0  19951-2 0  9992
2 67617  42.9969 252.0781 0003290 291.3509  68.7009 15.76399021  3237
STARLINK-36601          
1 67618U 26020B   26050.02081987  .00269721  00000+0  12393-2 0  9992
2 67618  42.9987 255.2751 0002016 260.1769  99.8875 15.82095833  3144
